OBJECT_NAME,OBJECT_ID,EPOCH,MEAN_MOTION,ECCENTRICITY,INCLINATION,RA_OF_ASC_NODE,ARG_OF_PERICENTER,MEAN_ANOMALY,EPHEMERIS_TYPE,CLASSIFICATION_TYPE,NORAD_CAT_ID,ELEMENT_SET_NO,REV_AT_EPOCH,BSTAR,MEAN_MOTION_DOT,MEAN_MOTION_DDOT
ONEWEB-0231,2021-045R,2026-06-26T11:29:10.240800,13.15549178,.00019321,87.9005,257.3465,107.0892,253.0450,0,U,48782,999,24556,-.1685257E-3,-.51E-6,0
ONEWEB-0234,2021-045S,2026-06-26T12:23:44.296224,13.15549814,.00028394,87.9005,257.3206,102.1823,257.9626,0,U,48783,999,24570,.3810013E-3,.156E-5,0
ONEWEB-0238,2021-045T,2026-06-26T12:24:08.453664,13.15548208,.0002458,87.9013,257.3157,101.7022,258.4385,0,U,48784,999,24560,.5334432E-3,.214E-5,0
ONEWEB-0240,2021-045U,2026-06-26T11:05:13.362144,13.15548576,.00021004,87.9011,257.3364,109.7559,250.3798,0,U,48785,999,24562,.40748711E-3,.166E-5,0
ONEWEB-0246,2021-045V,2026-06-26T14:36:16.579008,13.15549622,.00018621,87.9011,257.3118,99.6823,260.4517,0,U,48786,999,24551,.17495905E-3,.79E-6,0
ONEWEB-0210,2021-045W,2026-06-26T12:10:14.292768,13.15547439,.00011545,87.9006,257.3289,108.9839,251.1416,0,U,48787,999,24554,.2493028E-3,.107E-5,0
ONEWEB-0214,2021-045X,2026-06-26T12:22:47.373312,13.15549613,.00016946,87.9009,257.3240,92.9028,267.2296,0,U,48788,999,24551,.3174514E-3,.132E-5,0
ONEWEB-0221,2021-045Y,2026-06-26T12:33:04.362624,13.15549083,.00019747,87.9009,257.3312,105.4595,254.6753,0,U,48789,999,24560,.56471342E-3,.225E-5,0
ONEWEB-0213,2021-045Z,2026-06-26T12:17:05.891136,13.15547343,.00017616,87.9005,257.3365,106.9604,253.1719,0,U,48790,999,24566,.25737201E-3,.11E-5,0
ONEWEB-0212,2021-045AA,2026-06-26T11:43:58.984896,13.15550783,.00020811,87.9009,257.3355,100.2250,259.9115,0,U,48791,999,24565,-.6698151E-4,-.12E-6,0
ONEWEB-0227,2021-045AB,2026-06-26T11:42:51.967872,13.15549702,.00020405,87.9006,257.3362,102.8908,257.2451,0,U,48792,999,24560,-.16638544E-3,-.5E-6,0
ONEWEB-0226,2021-045AC,2026-06-26T11:33:43.362432,13.15546871,.00017779,87.9004,257.3420,103.2883,256.8445,0,U,48793,999,24557,-.23020732E-3,-.74E-6,0
ONEWEB-0224,2021-045AD,2026-06-26T12:30:47.320128,13.15548743,.00027218,87.8999,257.3677,114.3480,245.7935,0,U,48794,999,24550,.79818974E-3,.313E-5,0
ONEWEB-0233,2021-045AE,2026-06-26T12:37:26.032800,13.15549233,.00019921,87.9000,257.3742,109.3430,250.7916,0,U,48795,999,24552,.33361769E-3,.138E-5,0
ONEWEB-0190,2021-045AF,2026-06-26T12:19:22.602720,13.15548124,.00016183,87.9002,257.3390,119.0809,241.0484,0,U,48796,999,24559,.50149469E-3,.202E-5,0
ONEWEB-0236,2021-045AG,2026-06-26T14:34:00.499008,13.15548881,.00021467,87.8998,257.3299,98.8456,261.2918,0,U,48797,999,24549,.42304544E-4,.29E-6,0
ONEWEB-0248,2021-045AH,2026-06-26T11:13:12.571104,13.15548232,.00020406,87.9010,257.3420,114.4241,245.7102,0,U,48798,999,24563,-.25205304E-4,.3E-7,0
ONEWEB-0225,2021-045AJ,2026-06-26T11:45:09.185760,13.15549691,.00017061,87.9002,257.3454,115.4353,244.6954,0,U,48799,999,24564,-.18771605E-3,-.58E-6,0
ONEWEB-0215,2021-045AK,2026-06-26T11:01:47.877888,13.15547700,.00018335,87.9013,257.3344,120.1431,239.9881,0,U,48800,999,24551,.67783487E-4,.38E-6,0
ONEWEB-0216,2021-045AL,2026-06-26T11:15:29.509056,13.15549370,.00019889,87.9009,257.3469,98.3655,261.7701,0,U,48801,999,24552,-.13322707E-3,-.37E-6,0
ONEWEB-0239,2021-045AM,2026-06-26T05:53:45.933792,13.15549111,.00020287,87.8997,257.3967,123.6441,236.4883,0,U,48802,999,24553,-.42850925E-3,-.148E-5,0
ONEWEB-0249,2021-060A,2026-06-26T13:15:36.230688,13.16595384,.0002116,87.9088,226.9184,99.8217,260.3153,0,U,48967,999,24084,-.65635234E-4,-.12E-6,0
ONEWEB-0250,2021-060B,2026-06-25T16:25:37.073568,13.25834152,.00030469,87.9091,224.8197,105.7714,254.3759,0,U,48968,999,24134,.54968112E-4,.37E-6,0
ONEWEB-0252,2021-060D,2026-06-26T14:00:05.039424,13.16594072,.00018425,87.9091,226.9044,93.0150,267.1191,0,U,48970,999,24089,.27362996E-3,.117E-5,0
ONEWEB-0253,2021-060E,2026-06-26T13:44:07.552032,13.16594092,.00021423,87.9087,226.9120,99.2469,260.8904,0,U,48971,999,24082,.15491767E-3,.72E-6,0
ONEWEB-0254,2021-060F,2026-06-26T13:57:47.894976,13.16594620,.00020637,87.9091,226.9079,105.7661,254.3698,0,U,48972,999,24082,.25780445E-3,.111E-5,0
ONEWEB-0255,2021-060G,2026-06-26T09:24:12.320928,13.16596654,.00020261,87.9091,226.9522,101.3227,258.8132,0,U,48973,999,24087,.32361378E-3,.137E-5,0
ONEWEB-0256,2021-060H,2026-06-26T13:40:42.019392,13.16593797,.00020369,87.9084,226.9204,93.3371,266.7993,0,U,48974,999,24086,.32214629E-3,.136E-5,0
ONEWEB-0257,2021-060J,2026-06-26T14:27:25.848000,13.16594741,.00019286,87.9090,226.9017,98.3618,261.7732,0,U,48975,999,24082,.15347524E-3,.72E-6,0
ONEWEB-0258,2021-060K,2026-06-26T14:29:42.934560,13.16594785,.00021143,87.9095,226.9135,97.7410,262.3962,0,U,48976,999,24083,.11291734E-3,.56E-6,0
ONEWEB-0259,2021-060L,2026-06-26T12:31:09.563808,13.16594988,.00021313,87.9090,226.9288,101.2573,258.8797,0,U,48977,999,24085,.23507537E-3,.103E-5,0
ONEWEB-0260,2021-060M,2026-06-26T14:08:03.164064,13.16594335,.00018061,87.9084,226.9167,86.2834,273.8504,0,U,48978,999,24084,.37415041E-3,.156E-5,0
ONEWEB-0261,2021-060N,2026-06-26T13:24:43.754400,13.16592816,.00017841,87.9086,226.9228,102.8018,257.3312,0,U,48979,999,24089,.23087693E-4,.22E-6,0
ONEWEB-0262,2021-060P,2026-06-26T14:45:40.288032,13.16595419,.00022207,87.9095,226.8978,103.0951,257.0428,0,U,48980,999,24086,-.15324382E-4,.7E-7,0
ONEWEB-0263,2021-060Q,2026-06-26T10:02:57.604992,13.16595246,.00018842,87.9089,226.9485,105.6793,254.4546,0,U,48981,999,24080,.24172147E-3,.105E-5,0
ONEWEB-0264,2021-060R,2026-06-26T14:35:24.621504,13.16595273,.00018219,87.9091,226.9137,95.8842,264.2497,0,U,48982,999,24083,-.93217458E-4,-.23E-6,0
ONEWEB-0266,2021-060T,2026-06-26T13:16:45.787872,13.16594284,.0002167,87.9091,226.9155,95.9693,264.1685,0,U,48984,999,24081,-.5955467E-5,.11E-6,0
ONEWEB-0267,2021-060U,2026-06-26T13:32:43.011744,13.16595171,.00018725,87.9090,226.9098,100.0727,260.0616,0,U,48985,999,24082,.46936786E-4,.31E-6,0
ONEWEB-0268,2021-060V,2026-06-26T12:47:06.086112,13.16592762,.00019948,87.9093,226.9259,92.8736,267.2623,0,U,48986,999,24108,.12728025E-3,.62E-6,0
ONEWEB-0269,2021-060W,2026-06-26T14:09:11.602368,13.16595017,.00020792,87.9082,226.9160,90.8408,269.2961,0,U,48987,999,24086,.22353279E-3,.98E-6,0
ONEWEB-0270,2021-060X,2026-06-26T09:05:58.106400,13.16595624,.00020353,87.9092,226.9580,107.3244,252.8110,0,U,48988,999,24087,.9351546E-4,.49E-6,0
ONEWEB-0271,2021-060Y,2026-06-26T14:16:02.297856,13.16594616,.00019191,87.9090,226.9049,102.3777,257.7569,0,U,48989,999,24090,.11309238E-3,.56E-6,0
ONEWEB-0272,2021-060Z,2026-06-26T09:19:39.278784,13.16593595,.00017957,87.9085,226.9576,93.0973,267.0363,0,U,48990,999,24082,.21432901E-3,.95E-6,0
ONEWEB-0273,2021-060AA,2026-06-26T13:30:26.022816,13.16595270,.00020188,87.9091,226.9224,100.6184,259.5175,0,U,48991,999,24082,.13904897E-3,.66E-6,0
ONEWEB-0274,2021-060AB,2026-06-26T14:06:54.865728,13.16594136,.0001803,87.9081,226.9189,90.1657,269.9681,0,U,48992,999,24086,.18477549E-3,.83E-6,0
ONEWEB-0275,2021-060AC,2026-06-26T13:50:57.845760,13.16594806,.00019407,87.9090,226.9110,96.4529,263.6823,0,U,48993,999,24079,.24016672E-3,.105E-5,0
ONEWEB-0276,2021-060AD,2026-06-26T12:49:23.887200,13.16594839,.00019316,87.9090,226.9190,93.0835,267.0517,0,U,48994,999,24080,.4383356E-5,.15E-6,0
ONEWEB-0277,2021-060AE,2026-06-26T09:28:47.191296,13.16594059,.00020052,87.9085,226.9550,101.0912,259.0445,0,U,48995,999,24077,-.76349452E-4,-.16E-6,0
ONEWEB-0278,2021-060AF,2026-06-26T12:53:57.159168,13.16592871,.00023094,87.9093,226.9176,96.1825,263.9569,0,U,48996,999,24092,-.4203986E-5,.11E-6,0
ONEWEB-0279,2021-060AG,2026-06-26T13:05:21.496416,13.16594994,.00018307,87.9092,226.9141,99.7516,260.3822,0,U,48997,999,24085,-.11202027E-3,-.3E-6,0
ONEWEB-0280,2021-060AH,2026-06-26T13:27:01.234944,13.16593796,.00023014,87.9089,226.9153,104.1207,256.0180,0,U,48998,999,24079,-.445918E-5,.11E-6,0
ONEWEB-0281,2021-060AJ,2026-06-26T13:34:59.516832,13.16595510,.00021287,87.9090,226.9094,95.9299,264.2074,0,U,48999,999,24086,.14195113E-3,.67E-6,0
ONEWEB-0282,2021-060AK,2026-06-26T08:50:00.411648,13.16593798,.00020582,87.9091,226.9569,100.3079,259.8284,0,U,49000,999,24081,.3264026E-3,.138E-5,0
ONEWEB-0283,2021-060AL,2026-06-26T14:02:21.297408,13.16594821,.00019081,87.9089,226.9132,98.2769,261.8578,0,U,49001,999,24085,.22704409E-3,.1E-5,0
ONEWEB-0284,2021-060AM,2026-06-26T10:14:22.191072,13.16592913,.0002446,87.9093,226.9382,102.4742,257.6663,0,U,49002,999,24081,.22056045E-2,.856E-5,0
ONEWEB-0285,2021-075A,2026-06-26T10:29:55.143456,13.12432352,.00018696,87.8947,348.8219,94.7415,265.3927,0,U,49075,999,23642,-.4331438E-2,-.1545E-4,0
ONEWEB-0286,2021-075B,2026-06-26T11:53:52.142496,13.12441452,.00019102,87.8942,348.8263,86.1759,273.9588,0,U,49076,999,23578,-.10416575E-2,-.362E-5,0
ONEWEB-0287,2021-075C,2026-06-26T12:09:47.193408,13.17649853,.0002184,87.9132,4.0114,81.9031,278.2348,0,U,49077,999,23485,.12988996E-3,.63E-6,0
ONEWEB-0288,2021-075D,2026-06-26T11:19:55.162272,13.12443365,.00020506,87.8951,348.8085,90.9371,269.1993,0,U,49078,999,23640,.10790463E-2,.401E-5,0
ONEWEB-0289,2021-075E,2026-06-26T11:16:08.173056,13.17648069,.00020591,87.9136,4.0363,100.3003,259.8361,0,U,49079,999,23542,.45043621E-4,.3E-6,0
ONEWEB-0290,2021-075F,2026-06-26T10:37:28.089408,13.17649458,.00020666,87.9141,4.0136,103.5673,256.5689,0,U,49080,999,23483,.15305484E-3,.72E-6,0
ONEWEB-0291,2021-075G,2026-06-26T12:04:56.562816,13.17648888,.0002254,87.9132,4.0085,90.3628,269.7762,0,U,49081,999,23483,-.14126693E-3,-.42E-6,0
ONEWEB-0293,2021-075H,2026-06-26T10:52:02.197344,13.17649136,.00019672,87.9132,4.0217,93.1849,266.9508,0,U,49082,999,23485,.10156963E-3,.52E-6,0
ONEWEB-0294,2021-075J,2026-06-26T11:29:40.994880,13.12441130,.0001994,87.8953,348.8109,101.3635,258.7717,0,U,49083,999,23579,.62265836E-3,.237E-5,0
ONEWEB-0295,2021-075K,2026-06-26T10:50:49.669728,13.17649107,.00021837,87.9132,4.0258,86.8573,273.2809,0,U,49084,999,23481,.14770899E-3,.7E-6,0
